OBJECT_NAME,OBJECT_ID,EPOCH,MEAN_MOTION,ECCENTRICITY,INCLINATION,RA_OF_ASC_NODE,ARG_OF_PERICENTER,MEAN_ANOMALY,EPHEMERIS_TYPE,CLASSIFICATION_TYPE,NORAD_CAT_ID,ELEMENT_SET_NO,REV_AT_EPOCH,BSTAR,MEAN_MOTION_DOT,MEAN_MOTION_DDOT
SHIJIAN-20 (SJ-20),2019-097A,2026-07-18T18:00:38.461824,1.00271182,.0015491,4.9973,74.6760,57.6721,119.1269,0,U,44910,999,2401,0,.127E-5,0
TJS-5,2020-002A,2026-07-18T17:32:57.865920,1.00271547,.0007955,0.0735,78.1313,338.0337,251.1031,0,U,44978,999,2402,0,-.349E-5,0
GSAT-30,2020-005A,2026-07-18T20:59:34.611360,1.00272927,.00032438,0.0432,251.4432,198.7696,244.3517,0,U,45026,999,2382,0,-.171E-5,0
EUTELSAT KONNECT,2020-005B,2026-07-18T06:24:54.237024,1.00268756,.00018586,0.0682,93.7099,146.1168,159.6636,0,U,45027,999,2464,0,.41E-6,0
JCSAT-17,2020-013A,2026-07-18T17:17:34.979136,1.00271419,.0003231,5.3923,357.1708,128.5078,206.2475,0,U,45245,999,2354,0,-.322E-5,0
GEO-KOMPSAT-2B,2020-013B,2026-07-18T17:15:20.195136,1.00273435,.00003642,0.0569,239.0039,308.7788,135.8144,0,U,45246,999,2359,0,-.35E-5,0
BEIDOU-3 G2,2020-017A,2026-07-18T17:58:34.553856,1.00272380,.00018012,2.9271,47.7925,59.1114,179.3024,0,U,45344,999,2357,0,-.148E-5,0
AEHF-6 (USA 298),2020-022B,2026-07-18T17:18:12.418848,1.00270322,.00419023,2.4802,301.5720,15.4542,16.8000,0,U,45465,999,2333,0,-.304E-5,0
BEIDOU-3 G3,2020-040A,2026-07-18T17:10:20.673120,1.00274773,.00022277,2.5232,67.4992,309.4166,287.6963,0,U,45807,999,2238,0,-.361E-5,0
APSTAR-6D,2020-045A,2026-07-18T07:01:05.767104,1.00280104,.00021459,0.0432,92.5886,2.3059,80.5040,0,U,45863,999,2217,0,-.324E-5,0
KOREASAT 116,2020-048A,2026-07-18T21:32:52.317600,1.00274714,.00009287,0.0115,338.3201,137.2965,260.4554,0,U,45920,999,2195,0,-.368E-5,0
EXPRESS 103,2020-053A,2026-07-18T06:50:29.284224,1.00272468,.00004759,0.0409,240.7231,187.7051,66.7797,0,U,45985,999,2196,0,-.288E-5,0
EXPRESS 80,2020-053B,2026-07-18T22:52:56.626752,1.00267555,.0000721,0.0128,29.8264,204.3074,125.8595,0,U,45986,999,2194,0,0,0
BSAT-4B,2020-056A,2026-07-18T23:02:02.979744,1.00271347,.00045901,0.0555,217.2865,272.2146,262.5845,0,U,46112,999,2170,0,-.356E-5,0
MEV-2,2020-056B,2026-07-18T18:09:38.945664,1.00270531,.00001474,0.0528,253.9863,356.2154,317.7541,0,U,46113,999,8101,0,-.18E-6,0
GALAXY 30 (G-30),2020-056C,2026-07-18T14:15:38.763360,1.00272702,.00022223,0.0188,55.7560,63.4658,266.0802,0,U,46114,999,2160,0,.3E-6,0
GAOFEN-13 01,2020-071A,2026-07-18T19:14:12.407136,1.00276294,.0044497,0.4777,86.1013,119.9607,137.2821,0,U,46610,999,2123,0,-.369E-5,0
TIANTONG-1 2,2020-082A,2026-07-18T20:40:17.919264,1.00272078,.000131,0.7538,332.3255,130.6361,268.7125,0,U,46916,999,2097,0,-.362E-5,0
LUCAS (JDRS-1),2020-089A,2026-07-18T23:31:26.465952,1.00269488,.00017225,0.0652,268.1383,182.1968,290.0779,0,U,47202,999,2073,0,-.241E-5,0
SXM-7,2020-096A,2026-07-18T05:58:34.260960,1.00271108,.00035516,0.0256,99.8252,18.2487,182.4613,0,U,47240,999,775,0,-.213E-5,0
CMS-01,2020-099A,2026-07-18T20:59:34.694304,1.00270792,.00033958,0.0220,67.9153,200.9894,65.6659,0,U,47256,999,2051,0,0,0
TURKSAT 5A,2021-001A,2026-07-18T17:49:12.109728,1.00271963,.00001387,0.0143,72.6139,255.6728,266.4681,0,U,47306,999,2028,0,.147E-5,0
TIANTONG-1 3,2021-003A,2026-07-18T17:02:07.545120,1.00269851,.00030791,1.7329,341.2965,143.6461,148.6066,0,U,47321,999,2027,0,-.16E-5,0
TJS-6,2021-010A,2026-07-18T17:29:41.318880,1.00273686,.00030787,0.1701,261.2898,240.5188,235.6241,0,U,47613,999,2012,0,.36E-6,0
SBIRS GEO-5 (USA 315),2021-042A,2026-07-18T21:02:38.601888,1.00271330,.0001569,5.0641,329.3671,152.9039,223.8618,0,U,48618,999,1909,0,-.273E-5,0
FENGYUN 4B,2021-047A,2026-07-19T05:21:02.283840,1.00277813,.0006861,0.2306,80.1873,273.3927,128.2750,0,U,48808,999,1889,0,-.336E-5,0
SXM-8,2021-049A,2026-07-17T14:34:46.914816,1.00268602,.00058475,0.0193,51.3182,340.3427,37.2988,0,U,48838,999,1888,0,-.214E-5,0
TIANLIAN 1-05,2021-063A,2026-07-19T02:59:31.143264,1.00274312,.0001482,1.6744,80.4356,91.5925,186.6122,0,U,49011,999,1839,0,.102E-5,0
STAR ONE D2,2021-069A,2026-07-18T12:53:36.265920,1.00271791,.00026449,0.0084,16.4662,122.9480,280.2596,0,U,49055,999,1825,0,0,0
EUTELSAT QUANTUM,2021-069B,2026-07-18T22:34:20.723232,1.00273358,.00021688,0.0097,32.2247,78.4115,212.3723,0,U,49056,999,1824,0,.12E-5,0
ZHONGXING-2E,2021-071A,2026-07-18T22:17:48.151392,1.00272962,.00012489,0.0513,238.9952,256.3592,233.8894,0,U,49062,999,1835,0,-.298E-5,0
TJS-7,2021-077A,2026-07-18T13:56:30.091776,1.00272995,.0002934,0.2754,263.7671,113.2071,29.0124,0,U,49115,999,986,0,-.131E-5,0
