SHIJIAN-20 (SJ-20)      
1 44910U 19097A   26199.75044516  .00000127  00000+0  00000+0 0  9991
2 44910   4.9973  74.6760 0015491  57.6721 119.1269  1.00271182 24018
TJS-5                   
1 44978U 20002A   26199.73122530 -.00000349  00000+0  00000+0 0  9991
2 44978   0.0735  78.1313 0007955 338.0337 251.1031  1.00271547 24023
GSAT-30                 
1 45026U 20005A   26199.87470615 -.00000171  00000+0  00000+0 0  9997
2 45026   0.0432 251.4432 0003243 198.7696 244.3517  1.00272927 23828
EUTELSAT KONNECT        
1 45027U 20005B   26199.26729441  .00000041  00000+0  00000+0 0  9990
2 45027   0.0682  93.7099 0001858 146.1168 159.6636  1.00268756 24649
JCSAT-17                
1 45245U 20013A   26199.72054374 -.00000322  00000+0  00000+0 0  9991
2 45245   5.3923 357.1708 0003231 128.5078 206.2475  1.00271419 23540
GEO-KOMPSAT-2B          
1 45246U 20013B   26199.71898374 -.00000350  00000+0  00000+0 0  9998
2 45246   0.0569 239.0039 0000364 308.7788 135.8144  1.00273435 23593
BEIDOU-3 G2             
1 45344U 20017A   26199.74901104 -.00000148  00000+0  00000+0 0  9995
2 45344   2.9271  47.7925 0001801  59.1114 179.3024  1.00272380 23574
AEHF-6 (USA 298)        
1 45465U 20022B   26199.72097707 -.00000304  00000+0  00000+0 0  9992
2 45465   2.4802 301.5720 0041902  15.4542  16.8000  1.00270322 23330
BEIDOU-3 G3             
1 45807U 20040A   26199.71551705 -.00000361  00000+0  00000+0 0  9997
2 45807   2.5232  67.4992 0002227 309.4166 287.6963  1.00274773 22386
APSTAR-6D               
1 45863U 20045A   26199.29242786 -.00000324  00000+0  00000+0 0  9992
2 45863   0.0432  92.5886 0002145   2.3059  80.5040  1.00280104 22171
KOREASAT 116            
1 45920U 20048A   26199.89782775 -.00000368  00000+0  00000+0 0  9990
2 45920   0.0115 338.3201 0000928 137.2965 260.4554  1.00274714 21950
EXPRESS 103             
1 45985U 20053A   26199.28506116 -.00000288  00000+0  00000+0 0  9994
2 45985   0.0409 240.7231 0000475 187.7051  66.7797  1.00272468 21960
EXPRESS 80              
1 45986U 20053B   26199.95343318  .00000000  00000+0  00000+0 0  9993
2 45986   0.0128  29.8264 0000721 204.3074 125.8595  1.00267555 21948
BSAT-4B                 
1 46112U 20056A   26199.95975671 -.00000356  00000+0  00000+0 0  9996
2 46112   0.0555 217.2865 0004590 272.2146 262.5845  1.00271347 21701
MEV-2                   
1 46113U 20056B   26199.75670076 -.00000018  00000+0  00000+0 0  9991
2 46113   0.0528 253.9863 0000147 356.2154 317.7541  1.00270531 81013
GALAXY 30 (G-30)        
1 46114U 20056C   26199.59419865  .00000030  00000+0  00000+0 0  9994
2 46114   0.0188  55.7560 0002222  63.4658 266.0802  1.00272702 21607
GAOFEN-13 01            
1 46610U 20071A   26199.80153249 -.00000369  00000+0  00000+0 0  9993
2 46610   0.4777  86.1013 0044497 119.9607 137.2821  1.00276294 21237
TIANTONG-1 2            
1 46916U 20082A   26199.86131851 -.00000362  00000+0  00000+0 0  9998
2 46916   0.7538 332.3255 0001310 130.6361 268.7125  1.00272078 20975
LUCAS (JDRS-1)          
1 47202U 20089A   26199.98016743 -.00000241  00000+0  00000+0 0  9995
2 47202   0.0652 268.1383 0001722 182.1968 290.0779  1.00269488 20732
SXM-7                   
1 47240U 20096A   26199.24900765 -.00000213  00000+0  00000+0 0  9999
2 47240   0.0256  99.8252 0003551  18.2487 182.4613  1.00271108  7755
CMS-01                  
1 47256U 20099A   26199.87470711  .00000000  00000+0  00000+0 0  9994
2 47256   0.0220  67.9153 0003395 200.9894  65.6659  1.00270792 20516
TURKSAT 5A              
1 47306U 21001A   26199.74250127  .00000147  00000+0  00000+0 0  9999
2 47306   0.0143  72.6139 0000138 255.6728 266.4681  1.00271963 20289
TIANTONG-1 3            
1 47321U 21003A   26199.70980955 -.00000160  00000+0  00000+0 0  9999
2 47321   1.7329 341.2965 0003079 143.6461 148.6066  1.00269851 20279
TJS-6                   
1 47613U 21010A   26199.72895045  .00000036  00000+0  00000+0 0  9999
2 47613   0.1701 261.2898 0003078 240.5188 235.6241  1.00273686 20125
SBIRS GEO-5 (USA 315)   
1 48618U 21042A   26199.87683567 -.00000273  00000+0  00000+0 0  9994
2 48618   5.0641 329.3671 0001569 152.9039 223.8618  1.00271330 19092
FENGYUN 4B              
1 48808U 21047A   26200.22294310 -.00000336  00000+0  00000+0 0  9996
2 48808   0.2306  80.1873 0006861 273.3927 128.2750  1.00277813 18892
SXM-8                   
1 48838U 21049A   26198.60748744 -.00000214  00000+0  00000+0 0  9999
2 48838   0.0193  51.3182 0005847 340.3427  37.2988  1.00268602 18880
TIANLIAN 1-05           
1 49011U 21063A   26200.12466601  .00000102  00000+0  00000+0 0  9994
2 49011   1.6744  80.4356 0001482  91.5925 186.6122  1.00274312 18398
STAR ONE D2             
1 49055U 21069A   26199.53722530  .00000000  00000+0  00000+0 0  9993
2 49055   0.0084  16.4662 0002644 122.9480 280.2596  1.00271791 18250
EUTELSAT QUANTUM        
1 49056U 21069B   26199.94051763  .00000120  00000+0  00000+0 0  9995
2 49056   0.0097  32.2247 0002168  78.4115 212.3723  1.00273358 18249
ZHONGXING-2E            
1 49062U 21071A   26199.92902953 -.00000298  00000+0  00000+0 0  9996
2 49062   0.0513 238.9952 0001248 256.3592 233.8894  1.00272962 18350
TJS-7                   
1 49115U 21077A   26199.58090384 -.00000131  00000+0  00000+0 0  9995
2 49115   0.2754 263.7671 0002934 113.2071  29.0124  1.00272995  9861
